     2.11           N: GPS NAV DATA                         RINEX VERSION / TYPE
teqc  2018Dec12     gpsops              20220108 01:04:05UTCPGM / RUN BY / DATE
Linux 2.6.32-573.12.1.x86_64|x86_64|gcc -static|Linux 64|=+ COMMENT
CHPI                                    MARKER NAME         COMMENT
41609M003                               MARKER NUMBER       COMMENT
4164613.9484 -4162456.9866 -2445028.7316                    COMMENT
                                                            COMMENT
This data is provided as a public service by NASA/JPL.      COMMENT
No warranty is expressed or implied regarding suitability   COMMENT
for use.  For further information, contact:                 COMMENT
Dave Stowers, NASA/JPL m/s 238-600                          COMMENT
4800 Oak Grove Drive, Pasadena CA 91109 USA                 COMMENT
                                                            END OF HEADER
28 22  1  7 10  0  0.0 4.271729849279D-04-7.844391802792D-12 0.000000000000D+00
    5.900000000000D+01-4.468750000000D+00 4.546617956316D-09 1.236739577339D+00
   -5.122274160385D-07 1.703535940032D-02 6.737187504768D-06 5.153697772980D+03
    4.680000000000D+05 7.078051567078D-08 3.108713325451D+00-4.209578037262D-07
    9.702155458976D-01 2.543125000000D+02-1.295389130545D+00-8.164982961457D-09
   -2.785830326729D-10 1.000000000000D+00 2.191000000000D+03 0.000000000000D+00
    2.800000000000D+00 6.300000000000D+01-1.117587089539D-08 5.900000000000D+01
    4.608180000000D+05 4.000000000000D+00
24 22  1  7 10  0  0.0 2.770177088678D-04 4.547473508865D-13 0.000000000000D+00
    3.500000000000D+01 3.331250000000D+01 5.236289541049D-09-1.132187020980D+00
    1.803040504456D-06 1.224900665693D-02 7.614493370056D-06 5.153697870255D+03
    4.680000000000D+05 2.663582563400D-07 1.892227999600D+00 1.173466444016D-07
    9.340991721113D-01 2.177187500000D+02 7.987089858238D-01-8.408921693913D-09
    2.150089559860D-10 1.000000000000D+00 2.191000000000D+03 0.000000000000D+00
    2.000000000000D+00 0.000000000000D+00 2.328306436539D-09 3.500000000000D+01
    4.608180000000D+05 4.000000000000D+00
11 22  1  7 10  0  0.0-2.043182030320D-05-3.547029336914D-11 0.000000000000D+00
    3.000000000000D+01 4.856250000000D+01 4.727696927554D-09 7.892542062571D-01
    2.576038241386D-06 3.174988087267D-04 5.308538675308D-06 5.153754663467D+03
    4.680000000000D+05-4.097819328308D-08-1.116880847050D+00-2.235174179077D-08
    9.615060382430D-01 2.787187500000D+02 2.785228126743D+00-8.291773957096D-09
    2.692969315838D-10 1.000000000000D+00 2.191000000000D+03 0.000000000000D+00
    2.800000000000D+00 6.300000000000D+01-8.847564458847D-09 5.420000000000D+02
    4.608180000000D+05 4.000000000000D+00
14 22  1  7 10  0  0.0-6.712740287185D-05-5.570655048359D-12 0.000000000000D+00
    1.050000000000D+02 7.187500000000D-01 4.839844456091D-09-2.737495116940D+00
    1.303851604462D-07 1.293632551096D-03 6.629154086113D-06 5.153638769150D+03
    4.680000000000D+05 7.450580596924D-09 3.055954548362D+00 5.587935447693D-09
    9.545060469167D-01 2.489375000000D+02 3.049898917469D+00-8.223556829865D-09
   -2.550106222160D-10 1.000000000000D+00 2.191000000000D+03 0.000000000000D+00
    2.000000000000D+00 0.000000000000D+00-7.916241884232D-09 6.170000000000D+02
    4.608180000000D+05 4.000000000000D+00
 2 22  1  7 10  0  0.0-6.479807198048D-04-1.023181539495D-12 0.000000000000D+00
    9.600000000000D+01 6.371875000000D+01 4.624478342371D-09-1.274409062493D+00
    3.742054104805D-06 2.065322827548D-02 6.429851055145D-06 5.153669736862D+03
    4.680000000000D+05-3.278255462646D-07-1.250065154757D+00 3.892928361893D-07
    9.647417423945D-01 2.649687500000D+02-1.460782466105D+00-8.382492021582D-09
    3.014411276615D-10 1.000000000000D+00 2.191000000000D+03 0.000000000000D+00
    2.800000000000D+00 0.000000000000D+00-1.769512891769D-08 9.600000000000D+01
    4.608180000000D+05 4.000000000000D+00
12 22  1  7 10  0  0.0-1.522246748209D-04-5.570655048359D-12 0.000000000000D+00
    7.800000000000D+01-8.750000000000D+00 4.379825294447D-09-2.766788097018D+00
   -4.228204488754D-07 8.547664037906D-03 6.778165698051D-06 5.153621730804D+03
    4.680000000000D+05 1.098960638046D-07 3.086615503137D+00-4.656612873077D-08
    9.711040287121D-01 2.531562500000D+02 1.234344265496D+00-7.891757294797D-09
   -2.785830326729D-10 1.000000000000D+00 2.191000000000D+03 0.000000000000D+00
    2.000000000000D+00 0.000000000000D+00-1.257285475731D-08 7.800000000000D+01
    4.608180000000D+05 4.000000000000D+00
30 22  1  7 10  0  0.0-5.050189793110D-04-2.728484105319D-12 0.000000000000D+00
    7.800000000000D+01 3.562500000000D+01 5.188787562401D-09-2.092837353088D+00
    1.715496182442D-06 5.404412513599D-03 7.962808012962D-06 5.153592525482D+03
    4.680000000000D+05 2.235174179077D-08 1.988075716476D+00-8.195638656616D-08
    9.358289630212D-01 2.122500000000D+02-2.753107622989D+00-8.287845222020D-09
    3.364425856127D-10 1.000000000000D+00 2.191000000000D+03 0.000000000000D+00
    2.000000000000D+00 0.000000000000D+00 3.725290298462D-09 7.800000000000D+01
    4.608180000000D+05 4.000000000000D+00
20 22  1  7 10  0  0.0 5.172854289412D-04-1.136868377216D-13 0.000000000000D+00
    9.100000000000D+01-4.618750000000D+01 5.362366221220D-09-3.694884527114D-01
   -2.369284629822D-06 5.340352188796D-03 3.367662429810D-06 5.153718236923D+03
    4.680000000000D+05 9.126961231232D-08-2.792230234911D-01 9.313225746155D-09
    9.415253407325D-01 3.040000000000D+02 3.093860043164D+00-8.680361571902D-09
   -1.750072897561D-11 1.000000000000D+00 2.191000000000D+03 0.000000000000D+00
    2.000000000000D+00 0.000000000000D+00-8.381903171539D-09 9.100000000000D+01
    4.624020000000D+05 4.000000000000D+00
 6 22  1  7  9 59 44.0 1.639840193093D-04 1.080024958355D-11 0.000000000000D+00
    1.000000000000D+00 5.562500000000D+01 4.165173496195D-09-1.068532918651D+00
    2.784654498100D-06 2.593009965494D-03 5.980953574181D-06 5.153644678116D+03
    4.679840000000D+05-2.607703208923D-08-1.169850274102D+00-8.195638656616D-08
    9.857810849619D-01 2.801562500000D+02-1.007065612599D+00-8.067836057755D-09
    3.271564845236D-10 1.000000000000D+00 2.191000000000D+03 0.000000000000D+00
    2.000000000000D+00 0.000000000000D+00 4.190951585770D-09 1.000000000000D+00
    4.630680000000D+05 4.000000000000D+00
29 22  1  7 10  0  0.0-4.641814157367D-04-5.002220859751D-12 0.000000000000D+00
    6.100000000000D+01 4.537500000000D+01 3.768371253503D-09 8.851418066691D-01
    2.374872565269D-06 1.753320102580D-03 9.631738066673D-06 5.153773698807D+03
    4.680000000000D+05 2.421438694000D-08-2.146719727333D+00-1.862645149231D-09
    9.822636842309D-01 2.052500000000D+02 2.304494110927D+00-7.736393680421D-09
   -3.500145795122D-11 1.000000000000D+00 2.191000000000D+03 0.000000000000D+00
    2.000000000000D+00 0.000000000000D+00-1.024454832077D-08 6.100000000000D+01
    4.635480000000D+05 4.000000000000D+00
25 22  1  7 10  0  0.0 2.673189155757D-04 5.570655048359D-12 0.000000000000D+00
    4.000000000000D+01-5.593750000000D+00 4.640193282676D-09-2.992461077364D+00
   -2.942979335785D-07 1.032704417594D-02 6.606802344322D-06 5.153726774216D+03
    4.680000000000D+05 6.332993507385D-08 3.010404286942D+00-1.434236764908D-07
    9.584876403318D-01 2.497812500000D+02 9.691929661601D-01-8.030691653399D-09
   -2.721541934574D-10 1.000000000000D+00 2.191000000000D+03 0.000000000000D+00
    2.000000000000D+00 0.000000000000D+00 5.587935447693D-09 4.000000000000D+01
    4.639020000000D+05 4.000000000000D+00
 2 22  1  7  9 59 44.0-6.479811854661D-04-1.023181539495D-12 0.000000000000D+00
    0.000000000000D+00 6.371875000000D+01 4.624478342371D-09-1.276742820595D+00
    3.743916749954D-06 2.065322874114D-02 6.429851055145D-06 5.153669736862D+03
    4.679840000000D+05-3.278255462646D-07-1.250065011391D+00 3.892928361893D-07
    9.647417526350D-01 2.649687500000D+02-1.460782432457D+00-8.382492021582D-09
    3.017982853957D-10 1.000000000000D+00 2.191000000000D+03 0.000000000000D+00
    2.000000000000D+00 0.000000000000D+00-1.769512891769D-08 0.000000000000D+00
    4.643160000000D+05 4.000000000000D+00
 5 22  1  7  9 59 44.0-6.706034764647D-05-1.250555214938D-12 0.000000000000D+00
    5.900000000000D+01-6.459375000000D+01 4.898775482233D-09 1.198844915446D+00
   -3.270804882050D-06 5.892974440940D-03 4.285946488380D-06 5.153643918991D+03
    4.679840000000D+05-7.264316082001D-08-1.659553608898D-01 7.078051567078D-08
    9.593880883533D-01 2.995000000000D+02 1.015821545959D+00-8.465709773650D-09
   -1.192906832215D-10 1.000000000000D+00 2.191000000000D+03 0.000000000000D+00
    2.000000000000D+00 0.000000000000D+00-1.117587089539D-08 5.900000000000D+01
    4.659780000000D+05 4.000000000000D+00
15 22  1  7  9 59 44.0-9.336601942778D-05 2.842170943040D-12 0.000000000000D+00
    1.800000000000D+01-6.168750000000D+01 5.247718588543D-09-1.547635855417D-01
   -3.077089786530D-06 1.391828455962D-02 9.762123227119D-06 5.153726139069D+03
    4.679840000000D+05-8.568167686462D-08 7.970712431824D-01 1.695007085800D-07
    9.298507863262D-01 1.747812500000D+02 1.069461763375D+00-8.592143611555D-09
   -2.857261873569D-11 1.000000000000D+00 2.191000000000D+03 0.000000000000D+00
    2.000000000000D+00 0.000000000000D+00-1.071020960808D-08 1.800000000000D+01
    4.666860000000D+05 4.000000000000D+00
24 22  1  7 12  0  0.0 2.770209684968D-04 4.547473508865D-13 0.000000000000D+00
    3.600000000000D+01 2.846875000000D+01 5.418082827755D-09-8.207414859201D-02
    1.622363924980D-06 1.224779011682D-02 8.016824722290D-06 5.153695146561D+03
    4.752000000000D+05 2.607703208923D-08 1.892166450248D+00 1.396983861923D-07
    9.340997953144D-01 2.089687500000D+02 7.987688659866D-01-8.618930441620D-09
    2.125088518467D-10 1.000000000000D+00 2.191000000000D+03 0.000000000000D+00
    2.000000000000D+00 0.000000000000D+00 2.328306436539D-09 3.600000000000D+01
    4.680180000000D+05 4.000000000000D+00
